OBJECT_NAME,OBJECT_ID,EPOCH,MEAN_MOTION,ECCENTRICITY,INCLINATION,RA_OF_ASC_NODE,ARG_OF_PERICENTER,MEAN_ANOMALY,EPHEMERIS_TYPE,CLASSIFICATION_TYPE,NORAD_CAT_ID,ELEMENT_SET_NO,REV_AT_EPOCH,BSTAR,MEAN_MOTION_DOT,MEAN_MOTION_DDOT
ONEWEB-0053,2020-008AC,2026-06-06T23:14:54.043584,13.10370805,.00022427,87.8837,38.3196,75.4932,284.6444,0,U,45157,999,30657,.15231639E-2,.544E-5,0
ONEWEB-0054,2020-008AD,2026-06-06T14:55:16.830912,13.10373460,.00018656,87.8859,38.3682,82.9395,277.1945,0,U,45158,999,30664,-.1433706E-2,-.488E-5,0
ONEWEB-0056,2020-008AE,2026-06-06T16:04:28.470144,13.10371479,.00019123,87.8844,38.3550,92.0349,268.0997,0,U,45159,999,30680,.10255799E-2,.371E-5,0
ONEWEB-0057,2020-008AF,2026-06-06T16:28:42.538080,13.10369244,.00022848,87.8840,38.3637,75.4498,284.6883,0,U,45160,999,30697,-.93010608E-3,-.312E-5,0
ONEWEB-0058,2020-008AG,2026-06-06T16:09:36.432576,13.10369338,.00015497,87.8837,38.3735,80.2935,279.8367,0,U,45161,999,30704,.33633719E-3,.13E-5,0
ONEWEB-0059,2020-008AH,2026-06-06T16:04:50.134944,13.10369569,.00017599,87.8836,38.3728,76.3011,283.8313,0,U,45162,999,30694,.79525358E-3,.29E-5,0
ONEWEB-0062,2020-008AJ,2026-06-06T14:47:54.985632,13.10371794,.00013815,87.8846,38.3696,84.7301,275.3984,0,U,45163,999,30680,-.1785441E-2,-.611E-5,0
ONEWEB-0065,2020-008AK,2026-06-06T15:35:45.231648,13.10374906,.00021573,87.8856,38.3706,86.3741,273.7633,0,U,45164,999,30650,.11012759E-2,.397E-5,0
ONEWEB-0066,2020-020A,2026-06-06T23:58:53.158368,13.11417256,.00017133,87.8899,23.0991,78.9523,281.1798,0,U,45424,999,30134,.12783314E-2,.466E-5,0
ONEWEB-0067,2020-020B,2026-06-06T15:44:09.963168,13.11423762,.00019969,87.8920,23.0877,83.8058,276.3297,0,U,45425,999,30135,-.15830761E-2,-.548E-5,0
ONEWEB-0080,2020-020C,2026-06-06T15:43:26.942880,13.11417015,.00014208,87.8908,23.1623,88.0432,272.0859,0,U,45426,999,30132,-.19093798E-2,-.664E-5,0
ONEWEB-0090,2020-020D,2026-06-06T16:24:57.788352,13.11419701,.00017917,87.8904,23.1622,83.6802,276.4530,0,U,45427,999,30129,.13674243E-2,.497E-5,0
ONEWEB-0061,2020-020E,2026-06-06T20:50:40.820064,13.11416043,.0001786,87.8905,23.1096,82.8037,277.3294,0,U,45428,999,30127,-.13332117E-3,-.35E-6,0
ONEWEB-0081,2020-020F,2026-06-07T00:03:46.388736,13.11416463,.00018709,87.8900,23.0939,79.0989,281.0349,0,U,45429,999,30140,.11849098E-2,.433E-5,0
ONEWEB-0069,2020-020G,2026-06-07T00:06:24.328800,13.11417903,.00018125,87.8904,23.0962,81.8954,278.2379,0,U,45430,999,30133,.1171805E-2,.428E-5,0
ONEWEB-0031,2020-020H,2026-06-06T15:48:08.155872,13.11417432,.00015795,87.8895,23.1707,87.8366,272.2943,0,U,45431,999,30127,-.17128031E-2,-.594E-5,0
ONEWEB-0027,2020-020J,2026-06-07T00:03:29.146752,13.16054097,.00017892,87.9153,7.8876,97.4473,262.6861,0,U,45432,999,30501,-.21278613E-4,.5E-7,0
ONEWEB-0064,2020-020K,2026-06-06T15:45:41.127264,13.11418911,.00016624,87.8901,23.1628,90.1581,269.9737,0,U,45433,999,30130,-.16870874E-2,-.585E-5,0
ONEWEB-0018,2020-020L,2026-06-06T23:51:33.675264,13.11418887,.0001585,87.8901,23.0951,73.8808,286.2495,0,U,45434,999,30129,.15791338E-2,.572E-5,0
ONEWEB-0083,2020-020M,2026-06-06T16:17:39.101856,13.11417891,.00017139,87.8907,23.1510,83.8011,276.3312,0,U,45435,999,30129,.63459088E-3,.238E-5,0
ONEWEB-0095,2020-020N,2026-06-06T16:05:25.895904,13.11417418,.00023758,87.8908,23.1612,99.1707,260.9690,0,U,45436,999,30129,-.48325774E-3,-.159E-5,0
ONEWEB-0092,2020-020P,2026-06-06T20:31:56.523648,13.11953545,.00021159,87.8904,23.1168,87.1981,272.9390,0,U,45437,999,30143,.66494116E-3,.25E-5,0
ONEWEB-0085,2020-020Q,2026-06-06T16:17:15.048960,13.11422173,.00015583,87.8898,23.1583,94.8174,265.3132,0,U,45438,999,30129,-.1031138E-2,-.353E-5,0
ONEWEB-0096,2020-020R,2026-06-06T16:19:56.744832,13.11423484,.00018072,87.8907,23.1533,87.0306,273.1029,0,U,45439,999,30128,.88734688E-3,.327E-5,0
ONEWEB-0037,2020-020S,2026-06-06T20:53:10.349952,13.11910743,.00018548,87.8915,23.0894,85.9003,274.2337,0,U,45440,999,30134,-.60832219E-3,-.204E-5,0
ONEWEB-0042,2020-020T,2026-06-06T16:05:01.791168,13.11419132,.00017507,87.8909,23.1513,82.6312,277.5015,0,U,45441,999,30128,-.10329272E-2,-.353E-5,0
ONEWEB-0098,2020-020U,2026-06-06T15:59:07.634976,13.11418085,.00016517,87.8903,23.1622,84.9025,275.2291,0,U,45442,999,30126,-.10810097E-2,-.37E-5,0
ONEWEB-0055,2020-020V,2026-06-06T15:28:25.076352,13.11413386,.00017324,87.8904,23.1653,87.1409,272.9917,0,U,45443,999,30123,-.11493321E-2,-.395E-5,0
ONEWEB-0093,2020-020W,2026-06-06T20:29:06.997344,13.11417197,.00020519,87.8906,23.1159,74.3296,285.8058,0,U,45444,999,30132,.13092501E-2,.477E-5,0
ONEWEB-0029,2020-020X,2026-06-06T15:38:34.663776,13.11418886,.00018206,87.8895,23.1663,76.5730,283.5601,0,U,45445,999,30127,-.16949062E-2,-.588E-5,0
