ONEWEB-0053             
1 45157U 20008AC  26157.96868105  .00000544  00000+0  15232-2 0  9993
2 45157  87.8837  38.3196 0002243  75.4932 284.6444 13.10370804306576
ONEWEB-0054             
1 45158U 20008AD  26157.62172258 -.00000488  00000+0 -14337-2 0  9998
2 45158  87.8859  38.3682 0001865  82.9395 277.1945 13.10373460306648
ONEWEB-0056             
1 45159U 20008AE  26157.66977396  .00000371  00000+0  10256-2 0  9994
2 45159  87.8844  38.3550 0001912  92.0349 268.0997 13.10371479306803
ONEWEB-0057             
1 45160U 20008AF  26157.68660345 -.00000312  00000+0 -93011-3 0  9999
2 45160  87.8840  38.3637 0002285  75.4498 284.6883 13.10369244306974
ONEWEB-0058             
1 45161U 20008AG  26157.67333833  .00000130  00000+0  33634-3 0  9999
2 45161  87.8837  38.3735 0001550  80.2935 279.8367 13.10369338307040
ONEWEB-0059             
1 45162U 20008AH  26157.67002470  .00000290  00000+0  79525-3 0  9996
2 45162  87.8836  38.3728 0001760  76.3011 283.8313 13.10369569306946
ONEWEB-0062             
1 45163U 20008AJ  26157.61660863 -.00000611  00000+0 -17854-2 0  9992
2 45163  87.8846  38.3696 0001381  84.7301 275.3984 13.10371794306804
ONEWEB-0065             
1 45164U 20008AK  26157.64982906  .00000397  00000+0  11013-2 0  9991
2 45164  87.8856  38.3706 0002157  86.3741 273.7633 13.10374906306504
ONEWEB-0066             
1 45424U 20020A   26157.99922637  .00000466  00000+0  12783-2 0  9999
2 45424  87.8899  23.0991 0001713  78.9523 281.1798 13.11417256301348
ONEWEB-0067             
1 45425U 20020B   26157.65567087 -.00000548  00000+0 -15831-2 0  9997
2 45425  87.8920  23.0877 0001997  83.8058 276.3297 13.11423762301359
ONEWEB-0080             
1 45426U 20020C   26157.65517294 -.00000664  00000+0 -19094-2 0  9997
2 45426  87.8908  23.1623 0001421  88.0432 272.0859 13.11417015301329
ONEWEB-0090             
1 45427U 20020D   26157.68400218  .00000497  00000+0  13674-2 0  9998
2 45427  87.8904  23.1622 0001792  83.6802 276.4530 13.11419701301292
ONEWEB-0061             
1 45428U 20020E   26157.86852801 -.00000035  00000+0 -13332-3 0  9990
2 45428  87.8905  23.1096 0001786  82.8037 277.3294 13.11416043301274
ONEWEB-0081             
1 45429U 20020F   26158.00262023  .00000433  00000+0  11849-2 0  9999
2 45429  87.8900  23.0939 0001871  79.0989 281.0349 13.11416463301408
ONEWEB-0069             
1 45430U 20020G   26158.00444824  .00000428  00000+0  11718-2 0  9991
2 45430  87.8904  23.0962 0001812  81.8954 278.2379 13.11417903301331
ONEWEB-0031             
1 45431U 20020H   26157.65842772 -.00000594  00000+0 -17128-2 0  9993
2 45431  87.8895  23.1707 0001579  87.8366 272.2943 13.11417432301273
ONEWEB-0027             
1 45432U 20020J   26158.00242067  .00000005  00000+0 -21279-4 0  9995
2 45432  87.9153   7.8876 0001789  97.4473 262.6861 13.16054097305014
ONEWEB-0064             
1 45433U 20020K   26157.65672601 -.00000585  00000+0 -16871-2 0  9991
2 45433  87.8901  23.1628 0001662  90.1581 269.9737 13.11418911301305
ONEWEB-0018             
1 45434U 20020L   26157.99413976  .00000572  00000+0  15791-2 0  9991
2 45434  87.8901  23.0951 0001585  73.8808 286.2495 13.11418887301291
ONEWEB-0083             
1 45435U 20020M   26157.67892478  .00000238  00000+0  63459-3 0  9999
2 45435  87.8907  23.1510 0001714  83.8011 276.3312 13.11417891301293
ONEWEB-0095             
1 45436U 20020N   26157.67043860 -.00000159  00000+0 -48326-3 0  9993
2 45436  87.8908  23.1612 0002376  99.1707 260.9690 13.11417418301298
ONEWEB-0092             
1 45437U 20020P   26157.85551532  .00000250  00000+0  66494-3 0  9990
2 45437  87.8904  23.1168 0002115  87.1981 272.9390 13.11953545301435
ONEWEB-0085             
1 45438U 20020Q   26157.67864639 -.00000353  00000+0 -10311-2 0  9998
2 45438  87.8898  23.1583 0001558  94.8174 265.3132 13.11422173301290
ONEWEB-0096             
1 45439U 20020R   26157.68051787  .00000327  00000+0  88735-3 0  9997
2 45439  87.8907  23.1533 0001807  87.0306 273.1029 13.11423484301282
ONEWEB-0037             
1 45440U 20020S   26157.87025868 -.00000204  00000+0 -60832-3 0  9995
2 45440  87.8915  23.0894 0001854  85.9003 274.2337 13.11910743301345
ONEWEB-0042             
1 45441U 20020T   26157.67015962 -.00000353  00000+0 -10329-2 0  9998
2 45441  87.8909  23.1513 0001751  82.6312 277.5015 13.11419132301289
ONEWEB-0098             
1 45442U 20020U   26157.66606058 -.00000370  00000+0 -10810-2 0  9994
2 45442  87.8903  23.1622 0001652  84.9025 275.2291 13.11418085301266
ONEWEB-0055             
1 45443U 20020V   26157.64473468 -.00000395  00000+0 -11493-2 0  9995
2 45443  87.8904  23.1653 0001732  87.1409 272.9917 13.11413386301237
ONEWEB-0093             
1 45444U 20020W   26157.85355321  .00000477  00000+0  13093-2 0  9993
2 45444  87.8906  23.1159 0002051  74.3296 285.8058 13.11417197301321
ONEWEB-0029             
1 45445U 20020X   26157.65179008 -.00000588  00000+0 -16949-2 0  9996
2 45445  87.8895  23.1663 0001821  76.5730 283.5601 13.11418886301279
